{"type":"FeatureCollection","features":[{"type":"Feature","properties":{"name":"Portugal-Spain border","source":"Natural Earth","license":"public domain"},"geometry":{"type":"MultiLineString","coordinates":[[[-7.27043,38.617696],[-7.273531,38.625395],[-7.279422,38.628909],[-7.286036,38.631907],[-7.290946,38.638159],[-7.292496,38.646118],[-7.292961,38.656272],[-7.290946,38.679087],[-7.284073,38.713245],[-7.280714,38.720428],[-7.272187,38.733735],[-7.27043,38.737507],[-7.225878,38.766134],[-7.211519,38.77536],[-7.196429,38.779985],[-7.179738,38.790889],[-7.166199,38.803421],[-7.160618,38.812903],[-7.151006,38.819285],[-7.104859,38.827192]],[[-8.191304,42.062085],[-8.204016,42.069552]],[[-8.204016,42.069552],[-8.207375,42.085779]],[[-8.207375,42.085779],[-8.204327,42.128799]],[[-8.204327,42.128799],[-8.213396,42.144018]],[[-8.213396,42.144018],[-8.222362,42.15363]],[[-7.104859,38.827192],[-7.088684,38.833367],[-7.07654,38.843237],[-7.064293,38.851118],[-7.056076,38.855149],[-7.057265,38.869437],[-7.0522,38.884992],[-7.06605,38.904603],[-7.044501,38.918633],[-7.022125,38.94287],[-6.988638,38.993771],[-6.97882,39.003822],[-6.973291,39.013951],[-6.974893,39.02302],[-6.986313,39.030074],[-6.979388,39.047178],[-6.985693,39.066764],[-6.999697,39.084696],[-7.015769,39.096814],[-7.038816,39.109138],[-7.064913,39.114771]],[[-7.064913,39.114771],[-7.091268,39.112446],[-7.115194,39.101103],[-7.127286,39.097485],[-7.142531,39.099527],[-7.157207,39.105444],[-7.167491,39.113479],[-7.168886,39.121851],[-7.15793,39.141385],[-7.155812,39.151513],[-7.168059,39.170633],[-7.191572,39.17916],[-7.219322,39.184844],[-7.244127,39.195645],[-7.258079,39.211303],[-7.265779,39.231353],[-7.264332,39.252334],[-7.250845,39.270627],[-7.300454,39.317911],[-7.319264,39.329538],[-7.326654,39.341321],[-7.331408,39.362611],[-7.331925,39.384729],[-7.326706,39.398837],[-7.318851,39.413254],[-7.313632,39.436095],[-7.313528,39.457438],[-7.320918,39.467411],[-7.362931,39.476093],[-7.38417,39.483999],[-7.399414,39.493663],[-7.408923,39.515574],[-7.417553,39.524204],[-7.451349,39.537846],[-7.468092,39.550249],[-7.497858,39.581048],[-7.515841,39.59376],[-7.548243,39.663213],[-7.555872,39.677207],[-7.557286,39.679801],[-7.341433,39.671843],[-7.327843,39.674789],[-7.311409,39.680318],[-7.292754,39.683315],[-7.25286,39.682333],[-7.235755,39.686519],[-7.214051,39.676184],[-7.18289,39.675099],[-7.035767,39.689258],[-7.021143,39.694012],[-7.009619,39.715458],[-7.010704,39.722796],[-7.01365,39.729617],[-7.01334,39.738919],[-7.008741,39.748324],[-6.996803,39.764706],[-6.993031,39.774214],[-6.994581,39.782586],[-6.99887,39.791784],[-7.000266,39.802533],[-6.993031,39.816072],[-6.985228,39.821136],[-6.962335,39.828526],[-6.952827,39.832867],[-6.92766,39.861909],[-6.92425,39.871573],[-6.923474,39.888316],[-6.921769,39.897152],[-6.921562,39.902165],[-6.925128,39.912242],[-6.925231,39.917926],[-6.922286,39.922422],[-6.912571,39.928107],[-6.909522,39.931982],[-6.903682,39.956684],[-6.899755,39.965624],[-6.901615,39.976476],[-6.896913,39.987121],[-6.879705,40.009187],[-6.919909,40.064894],[-6.94213,40.08634],[-6.955721,40.102928],[-6.966418,40.110318],[-6.977166,40.113418],[-7.003676,40.116312],[-7.015769,40.119051],[-7.027654,40.132642],[-7.034837,40.166748],[-7.043105,40.181373],[-7.034579,40.193052],[-7.02476,40.216203],[-7.015769,40.225504],[-6.997785,40.231706],[-6.954687,40.253358],[-6.942101,40.254978],[-6.935412,40.255839],[-6.915826,40.254443],[-6.896448,40.255477],[-6.878051,40.265244],[-6.875105,40.271238],[-6.874509,40.279188],[-6.873865,40.287775],[-6.870196,40.295526],[-6.863943,40.300952],[-6.820793,40.325343],[-6.811957,40.33232],[-6.794438,40.356401],[-6.82808,40.380585],[-6.851283,40.409524],[-6.857122,40.442132],[-6.838673,40.47722],[-6.815316,40.502542],[-6.812525,40.514634],[-6.818055,40.531894],[-6.828545,40.545537],[-6.839759,40.55458],[-6.848389,40.56476],[-6.850456,40.582227],[-6.844461,40.597781],[-6.82131,40.630183],[-6.814282,40.647184],[-6.814231,40.659328],[-6.816246,40.677156],[-6.824307,40.710694],[-6.836968,40.743302],[-6.839139,40.757513],[-6.839139,40.776892],[-6.837278,40.786762],[-6.834539,40.79224],[-6.833506,40.797821],[-6.836813,40.808311],[-6.838053,40.814926],[-6.836658,40.840247],[-6.820328,40.844226],[-6.816194,40.856835],[-6.821155,40.870065],[-6.832059,40.875904],[-6.847045,40.878901],[-6.855262,40.887221],[-6.863633,40.908305],[-6.885182,40.948923],[-6.899238,40.966751],[-6.930606,40.992073],[-6.940424,41.00339],[-6.942491,41.015999],[-6.931794,41.029125],[-6.927867,41.047935],[-6.927448,41.048098],[-6.906835,41.0561],[-6.845288,41.051914],[-6.818003,41.054136],[-6.80436,41.06442],[-6.764776,41.108861],[-6.756508,41.127051],[-6.758988,41.151753],[-6.755216,41.158833],[-6.742245,41.171442],[-6.70695,41.194334],[-6.701266,41.202447],[-6.693773,41.217382],[-6.658219,41.257845],[-6.646644,41.267611],[-6.628919,41.269937],[-6.563496,41.270712],[-6.554453,41.275621],[-6.495852,41.294948],[-6.463141,41.31412],[-6.430998,41.339028],[-6.399579,41.377475],[-6.395496,41.378406],[-6.383197,41.376545],[-6.379167,41.377475],[-6.376738,41.383005],[-6.375549,41.390808],[-6.376169,41.396854],[-6.379167,41.397319],[-6.366248,41.405174],[-6.352347,41.409256],[-6.321134,41.411013],[-6.321031,41.419592],[-6.282945,41.465635],[-6.28248,41.472302],[-6.285167,41.478968],[-6.285891,41.486874],[-6.279534,41.497003],[-6.253645,41.517519],[-6.205947,41.57028],[-6.216127,41.580099],[-6.23008,41.594904],[-6.272248,41.628235],[-6.317103,41.650146],[-6.365937,41.663608],[-6.447069,41.676243],[-6.460815,41.676553],[-6.46774,41.672057],[-6.474355,41.665933],[-6.488049,41.658802],[-6.503035,41.653092],[-6.513422,41.650921],[-6.541534,41.658905],[-6.55528,41.674899],[-6.560499,41.694459],[-6.563083,41.713036],[-6.567682,41.722442],[-6.574349,41.731046],[-6.577397,41.739727],[-6.571506,41.74921],[-6.564375,41.757504],[-6.560137,41.766883],[-6.535746,41.848584],[-6.524222,41.86742],[-6.550061,41.873879],[-6.567889,41.875869],[-6.575795,41.882897],[-6.567631,41.926072],[-6.571661,41.942609],[-6.585149,41.95465],[-6.609488,41.962324],[-6.622821,41.940955],[-6.656772,41.933075],[-6.727983,41.930853],[-6.757903,41.93757],[-6.794387,41.979713],[-6.824928,41.983769],[-6.831232,41.953952],[-6.854952,41.942945],[-6.917118,41.939095],[-6.945127,41.943358],[-6.969518,41.957698],[-6.983456,41.962996],[-6.992359,41.96638],[-7.015769,41.953668],[-7.05127,41.942015],[-7.082741,41.952789],[-7.113179,41.972426],[-7.145373,41.98749],[-7.159739,41.985733],[-7.177309,41.978369],[-7.192605,41.96961],[-7.199943,41.963719],[-7.202114,41.94974],[-7.195654,41.917365],[-7.197928,41.9015],[-7.209316,41.889161],[-7.21865,41.879047],[-7.251465,41.863699],[-7.322468,41.845406],[-7.340503,41.843209],[-7.376832,41.844036],[-7.391921,41.842047],[-7.405409,41.835199],[-7.429542,41.814503],[-7.442719,41.805951],[-7.446957,41.821841],[-7.456569,41.83923],[-7.469384,41.852537],[-7.483285,41.856206],[-7.493,41.856904],[-7.508142,41.864939],[-7.515841,41.864991],[-7.523283,41.860159],[-7.525247,41.854165],[-7.526332,41.847369],[-7.531551,41.84016],[-7.546692,41.832047],[-7.567104,41.826595],[-7.588395,41.824218],[-7.606068,41.825536],[-7.622192,41.832331],[-7.622812,41.841737],[-7.60736,41.873182],[-7.661156,41.874913],[-7.678674,41.881347],[-7.706372,41.896255],[-7.72203,41.899252],[-7.750142,41.888375],[-7.812154,41.877135],[-7.839233,41.878375],[-7.849723,41.875765],[-7.854425,41.870262],[-7.857888,41.863777],[-7.864812,41.857885],[-7.896593,41.857937],[-7.903363,41.886824],[-7.906102,41.913851],[-7.925791,41.908167],[-7.930493,41.896669],[-7.935351,41.879951],[-7.944756,41.866955],[-7.963359,41.866619],[-7.979431,41.868608],[-7.993642,41.863673],[-8.005889,41.853958],[-8.015708,41.841892],[-8.048574,41.816389],[-8.050446,41.815986],[-8.093481,41.806726],[-8.179574,41.810705],[-8.179265,41.812613],[-8.175388,41.836595],[-8.177041,41.84985],[-8.184586,41.85773],[-8.220398,41.868195],[-8.231715,41.886049],[-8.230216,41.904678],[-8.220708,41.922714],[-8.182132,41.965424],[-8.15296,41.986818],[-8.123918,42.0009],[-8.108028,42.010899],[-8.097356,42.023483],[-8.095083,42.040923],[-8.103196,42.055806],[-8.11844,42.066865],[-8.137612,42.072911],[-8.158386,42.071387],[-8.176163,42.065263],[-8.191304,42.062085]],[[-8.222362,42.15363],[-8.252334,42.137584],[-8.270679,42.132003],[-8.287836,42.131435],[-8.29538,42.130091],[-8.304269,42.125828],[-8.329952,42.108439],[-8.346747,42.101695],[-8.501208,42.083091],[-8.520018,42.077717],[-8.554434,42.060069],[-8.572805,42.054411],[-8.609418,42.053662],[-8.626885,42.051026],[-8.643886,42.041492],[-8.652568,42.031441],[-8.663213,42.009892],[-8.67081,41.999815],[-8.691274,41.989609],[-8.717008,41.983769],[-8.739591,41.975113],[-8.750803,41.96898]],[[-7.414418,37.192816],[-7.429387,37.236746],[-7.434244,37.259329],[-7.427578,37.274522],[-7.437448,37.307336],[-7.444993,37.386763],[-7.462253,37.417872],[-7.460031,37.429138],[-7.462925,37.451126],[-7.468868,37.475569],[-7.475947,37.49425],[-7.481477,37.500374],[-7.498633,37.511665],[-7.506333,37.518124],[-7.514613,37.528334],[-7.515428,37.529338],[-7.517547,37.535178],[-7.518425,37.541947],[-7.52367,37.555667],[-7.527598,37.555512],[-7.529122,37.556701],[-7.529691,37.567165],[-7.526487,37.571196],[-7.515841,37.580937],[-7.514653,37.585872],[-7.512534,37.590368],[-7.511759,37.595277],[-7.514343,37.601401],[-7.504886,37.606388],[-7.478479,37.628867],[-7.471606,37.636903],[-7.466335,37.651966],[-7.45755,37.700077],[-7.444011,37.730153],[-7.426338,37.750617],[-7.334405,37.811931],[-7.306862,37.850766],[-7.295803,37.884872],[-7.273892,37.931536],[-7.268621,37.949235],[-7.269086,37.959441],[-7.272135,37.96895],[-7.272704,37.977011],[-7.265831,37.982954],[-7.23405,37.98807],[-7.223301,37.993832],[-7.21033,37.993031],[-7.197618,37.98993],[-7.185267,37.98869],[-7.172865,37.993832],[-7.159739,37.996803],[-7.152246,38.000653],[-7.141911,38.011583],[-7.131989,38.032383],[-7.123256,38.040005],[-7.105944,38.038661],[-7.049358,38.020213],[-7.023985,38.022564],[-7.015769,38.046826],[-7.006363,38.059332],[-6.99763,38.089614],[-6.978975,38.119948],[-6.965487,38.153331],[-6.957633,38.168162],[-6.947504,38.196636],[-6.950576,38.198386],[-6.964196,38.206145],[-6.992101,38.204284],[-7.018146,38.198031],[-7.02104,38.198238],[-7.026414,38.199633],[-7.038713,38.186223],[-7.063053,38.177542],[-7.088322,38.173382],[-7.103515,38.173588],[-7.117068,38.183633],[-7.126873,38.1909],[-7.167181,38.272084],[-7.1724,38.276528],[-7.189453,38.286527],[-7.196326,38.29216],[-7.200667,38.298387],[-7.207126,38.311694],[-7.211364,38.317533],[-7.317146,38.424581],[-7.345516,38.440962],[-7.35921,38.446362],[-7.344844,38.458326],[-7.335181,38.469436],[-7.334095,38.481011],[-7.345619,38.494137],[-7.335801,38.505868],[-7.317714,38.556252],[-7.275856,38.60382],[-7.27043,38.617696]]]}}]}